SL-3 R/B                
1 13403U 82079B   26036.76881593  .00008009  00000+0  32369-3 0  9993
2 13403  81.1437 230.7581 0024131 274.8180  85.0297 15.24336073372832
SL-14 R/B               
1 13553U 82092B   26036.81691612  .00000873  00000+0  95284-4 0  9998
2 13553  82.5700 171.2016 0021494  49.8936  62.8556 14.86630773324194
SL-3 R/B                
1 13819U 83010B   26036.39386400  .00020484  00000+0  42770-3 0  9994
2 13819  81.1020  41.8091 0017709 154.1595 206.0538 15.45216273352957
SL-3 R/B                
1 14208U 83075B   26036.80685000  .00018029  00000+0  48678-3 0  9997
2 14208  97.6131  40.2027 0021504 349.4724  10.6067 15.37589267325254
COSMOS 1536             
1 14699U 84013A   26036.73574647  .00010535  00000+0  44004-3 0  9993
2 14699  82.5477 139.5957 0015063  39.4741 320.7590 15.23399353267752
SL-14 R/B               
1 14820U 84027B   26036.84220046  .00000641  00000+0  70393-4 0  9995
2 14820  82.5403 274.8882 0019528  79.7736 280.5682 14.85945539242903
SL-8 R/B                
1 15483U 85006B   26036.86099857  .00000393  00000+0  13886-3 0  9992
2 15483  74.0475 319.7148 0019580 243.5614 183.1566 14.37767325149459
SL-12 R/B(2)            
1 15772U 85042D   26036.76668615  .00000150  00000+0  88914-4 0  9992
2 15772  71.1085 155.1712 0035126 179.1083 291.0368 14.21973201109856
SL-14 R/B               
1 15945U 85069B   26036.56734661  .00000739  00000+0  80913-4 0  9990
2 15945  82.5240  55.1457 0017422 301.5528  58.3987 14.86395538168067
SL-16 R/B               
1 16182U 85097B   26036.86609414  .00000071  00000+0  59358-4 0  9993
2 16182  71.0013 207.5472 0009483 296.9765 166.5460 14.16596222 82722
SL-14 R/B               
1 16496U 86006B   26036.75474644  .00001108  00000+0  11506-3 0  9999
2 16496  82.5272 289.7947 0077203  19.6917 340.7251 14.86771218144468
COSMOS 1743             
1 16719U 86034A   26036.64352603  .00048739  00000+0  69107-3 0  9997
2 16719  82.5331 107.4001 0005197  60.5247 299.6526 15.56238865175266
