CCSDS_OMM_VERS = 2.0
CREATION_DATE  = 
ORIGINATOR     = 

OBJECT_NAME    = SL-3 R/B
OBJECT_ID      = 1982-079B
CENTER_NAME    = EARTH
REF_FRAME      = TEME
TIME_SYSTEM    = UTC
MEAN_ELEMENT_THEORY = SGP/SGP4

EPOCH          = 2026-02-05T18:27:05.696352
MEAN_MOTION    = 15.24336073
ECCENTRICITY   = .0024131
INCLINATION    = 81.1437
RA_OF_ASC_NODE = 230.7581
ARG_OF_PERICENTER = 274.8180
MEAN_ANOMALY   = 85.0297

EPHEMERIS_TYPE = 0
CLASSIFICATION_TYPE = U
NORAD_CAT_ID   = 13403
ELEMENT_SET_NO = 999
REV_AT_EPOCH   = 37283
BSTAR          = .32369E-3
MEAN_MOTION_DOT = .8009E-4
MEAN_MOTION_DDOT = 0

CCSDS_OMM_VERS = 2.0
CREATION_DATE  = 
ORIGINATOR     = 

OBJECT_NAME    = SL-14 R/B
OBJECT_ID      = 1982-092B
CENTER_NAME    = EARTH
REF_FRAME      = TEME
TIME_SYSTEM    = UTC
MEAN_ELEMENT_THEORY = SGP/SGP4

EPOCH          = 2026-02-05T19:36:21.552768
MEAN_MOTION    = 14.86630773
ECCENTRICITY   = .0021494
INCLINATION    = 82.5700
RA_OF_ASC_NODE = 171.2016
ARG_OF_PERICENTER = 49.8936
MEAN_ANOMALY   = 62.8556

EPHEMERIS_TYPE = 0
CLASSIFICATION_TYPE = U
NORAD_CAT_ID   = 13553
ELEMENT_SET_NO = 999
REV_AT_EPOCH   = 32419
BSTAR          = .95284E-4
MEAN_MOTION_DOT = .873E-5
MEAN_MOTION_DDOT = 0

CCSDS_OMM_VERS = 2.0
CREATION_DATE  = 
ORIGINATOR     = 

OBJECT_NAME    = SL-3 R/B
OBJECT_ID      = 1983-010B
CENTER_NAME    = EARTH
REF_FRAME      = TEME
TIME_SYSTEM    = UTC
MEAN_ELEMENT_THEORY = SGP/SGP4

EPOCH          = 2026-02-05T09:27:09.849600
MEAN_MOTION    = 15.45216273
ECCENTRICITY   = .00177094
INCLINATION    = 81.1020
RA_OF_ASC_NODE = 41.8091
ARG_OF_PERICENTER = 154.1595
MEAN_ANOMALY   = 206.0538

EPHEMERIS_TYPE = 0
CLASSIFICATION_TYPE = U
NORAD_CAT_ID   = 13819
ELEMENT_SET_NO = 999
REV_AT_EPOCH   = 35295
BSTAR          = .42770359E-3
MEAN_MOTION_DOT = .20484E-3
MEAN_MOTION_DDOT = 0

CCSDS_OMM_VERS = 2.0
CREATION_DATE  = 
ORIGINATOR     = 

OBJECT_NAME    = SL-3 R/B
OBJECT_ID      = 1983-075B
CENTER_NAME    = EARTH
REF_FRAME      = TEME
TIME_SYSTEM    = UTC
MEAN_ELEMENT_THEORY = SGP/SGP4

EPOCH          = 2026-02-05T19:21:51.840000
MEAN_MOTION    = 15.37589267
ECCENTRICITY   = .0021504
INCLINATION    = 97.6131
RA_OF_ASC_NODE = 40.2027
ARG_OF_PERICENTER = 349.4724
MEAN_ANOMALY   = 10.6067

EPHEMERIS_TYPE = 0
CLASSIFICATION_TYPE = U
NORAD_CAT_ID   = 14208
ELEMENT_SET_NO = 999
REV_AT_EPOCH   = 32525
BSTAR          = .48678E-3
MEAN_MOTION_DOT = .18029E-3
MEAN_MOTION_DDOT = 0

CCSDS_OMM_VERS = 2.0
CREATION_DATE  = 
ORIGINATOR     = 

OBJECT_NAME    = COSMOS 1536
OBJECT_ID      = 1984-013A
CENTER_NAME    = EARTH
REF_FRAME      = TEME
TIME_SYSTEM    = UTC
MEAN_ELEMENT_THEORY = SGP/SGP4

EPOCH          = 2026-02-05T17:39:28.495008
MEAN_MOTION    = 15.23399353
ECCENTRICITY   = .0015063
INCLINATION    = 82.5477
RA_OF_ASC_NODE = 139.5957
ARG_OF_PERICENTER = 39.4741
MEAN_ANOMALY   = 320.7590

EPHEMERIS_TYPE = 0
CLASSIFICATION_TYPE = U
NORAD_CAT_ID   = 14699
ELEMENT_SET_NO = 999
REV_AT_EPOCH   = 26775
BSTAR          = .44004E-3
MEAN_MOTION_DOT = .10535E-3
MEAN_MOTION_DDOT = 0

CCSDS_OMM_VERS = 2.0
CREATION_DATE  = 
ORIGINATOR     = 

OBJECT_NAME    = SL-14 R/B
OBJECT_ID      = 1984-027B
CENTER_NAME    = EARTH
REF_FRAME      = TEME
TIME_SYSTEM    = UTC
MEAN_ELEMENT_THEORY = SGP/SGP4

EPOCH          = 2026-02-05T20:12:46.119744
MEAN_MOTION    = 14.85945539
ECCENTRICITY   = .0019528
INCLINATION    = 82.5403
RA_OF_ASC_NODE = 274.8882
ARG_OF_PERICENTER = 79.7736
MEAN_ANOMALY   = 280.5682

EPHEMERIS_TYPE = 0
CLASSIFICATION_TYPE = U
NORAD_CAT_ID   = 14820
ELEMENT_SET_NO = 999
REV_AT_EPOCH   = 24290
BSTAR          = .70393E-4
MEAN_MOTION_DOT = .641E-5
MEAN_MOTION_DDOT = 0

CCSDS_OMM_VERS = 2.0
CREATION_DATE  = 
ORIGINATOR     = 

OBJECT_NAME    = SL-8 R/B
OBJECT_ID      = 1985-006B
CENTER_NAME    = EARTH
REF_FRAME      = TEME
TIME_SYSTEM    = UTC
MEAN_ELEMENT_THEORY = SGP/SGP4

EPOCH          = 2026-02-05T20:39:50.276448
MEAN_MOTION    = 14.37767325
ECCENTRICITY   = .001958
INCLINATION    = 74.0475
RA_OF_ASC_NODE = 319.7148
ARG_OF_PERICENTER = 243.5614
MEAN_ANOMALY   = 183.1566

EPHEMERIS_TYPE = 0
CLASSIFICATION_TYPE = U
NORAD_CAT_ID   = 15483
ELEMENT_SET_NO = 999
REV_AT_EPOCH   = 14945
BSTAR          = .13886E-3
MEAN_MOTION_DOT = .393E-5
MEAN_MOTION_DDOT = 0

CCSDS_OMM_VERS = 2.0
CREATION_DATE  = 
ORIGINATOR     = 

OBJECT_NAME    = SL-12 R/B(2)
OBJECT_ID      = 1985-042D
CENTER_NAME    = EARTH
REF_FRAME      = TEME
TIME_SYSTEM    = UTC
MEAN_ELEMENT_THEORY = SGP/SGP4

EPOCH          = 2026-02-05T18:24:01.683360
MEAN_MOTION    = 14.21973201
ECCENTRICITY   = .0035126
INCLINATION    = 71.1085
RA_OF_ASC_NODE = 155.1712
ARG_OF_PERICENTER = 179.1083
MEAN_ANOMALY   = 291.0368

EPHEMERIS_TYPE = 0
CLASSIFICATION_TYPE = U
NORAD_CAT_ID   = 15772
ELEMENT_SET_NO = 999
REV_AT_EPOCH   = 10985
BSTAR          = .88914E-4
MEAN_MOTION_DOT = .15E-5
MEAN_MOTION_DDOT = 0

CCSDS_OMM_VERS = 2.0
CREATION_DATE  = 
ORIGINATOR     = 

OBJECT_NAME    = SL-14 R/B
OBJECT_ID      = 1985-069B
CENTER_NAME    = EARTH
REF_FRAME      = TEME
TIME_SYSTEM    = UTC
MEAN_ELEMENT_THEORY = SGP/SGP4

EPOCH          = 2026-02-05T13:36:58.747104
MEAN_MOTION    = 14.86395538
ECCENTRICITY   = .0017422
INCLINATION    = 82.5240
RA_OF_ASC_NODE = 55.1457
ARG_OF_PERICENTER = 301.5528
MEAN_ANOMALY   = 58.3987

EPHEMERIS_TYPE = 0
CLASSIFICATION_TYPE = U
NORAD_CAT_ID   = 15945
ELEMENT_SET_NO = 999
REV_AT_EPOCH   = 16806
BSTAR          = .80913E-4
MEAN_MOTION_DOT = .739E-5
MEAN_MOTION_DDOT = 0

CCSDS_OMM_VERS = 2.0
CREATION_DATE  = 
ORIGINATOR     = 

OBJECT_NAME    = SL-16 R/B
OBJECT_ID      = 1985-097B
CENTER_NAME    = EARTH
REF_FRAME      = TEME
TIME_SYSTEM    = UTC
MEAN_ELEMENT_THEORY = SGP/SGP4

EPOCH          = 2026-02-05T20:47:10.533696
MEAN_MOTION    = 14.16596222
ECCENTRICITY   = .0009483
INCLINATION    = 71.0013
RA_OF_ASC_NODE = 207.5472
ARG_OF_PERICENTER = 296.9765
MEAN_ANOMALY   = 166.5460

EPHEMERIS_TYPE = 0
CLASSIFICATION_TYPE = U
NORAD_CAT_ID   = 16182
ELEMENT_SET_NO = 999
REV_AT_EPOCH   = 8272
BSTAR          = .59358E-4
MEAN_MOTION_DOT = .71E-6
MEAN_MOTION_DDOT = 0

CCSDS_OMM_VERS = 2.0
CREATION_DATE  = 
ORIGINATOR     = 

OBJECT_NAME    = SL-14 R/B
OBJECT_ID      = 1986-006B
CENTER_NAME    = EARTH
REF_FRAME      = TEME
TIME_SYSTEM    = UTC
MEAN_ELEMENT_THEORY = SGP/SGP4

EPOCH          = 2026-02-05T18:06:50.092416
MEAN_MOTION    = 14.86771218
ECCENTRICITY   = .0077203
INCLINATION    = 82.5272
RA_OF_ASC_NODE = 289.7947
ARG_OF_PERICENTER = 19.6917
MEAN_ANOMALY   = 340.7251

EPHEMERIS_TYPE = 0
CLASSIFICATION_TYPE = U
NORAD_CAT_ID   = 16496
ELEMENT_SET_NO = 999
REV_AT_EPOCH   = 14446
BSTAR          = .11506E-3
MEAN_MOTION_DOT = .1108E-4
MEAN_MOTION_DDOT = 0

CCSDS_OMM_VERS = 2.0
CREATION_DATE  = 
ORIGINATOR     = 

OBJECT_NAME    = COSMOS 1743
OBJECT_ID      = 1986-034A
CENTER_NAME    = EARTH
REF_FRAME      = TEME
TIME_SYSTEM    = UTC
MEAN_ELEMENT_THEORY = SGP/SGP4

EPOCH          = 2026-02-05T15:26:40.648992
MEAN_MOTION    = 15.56238865
ECCENTRICITY   = .0005197
INCLINATION    = 82.5331
RA_OF_ASC_NODE = 107.4001
ARG_OF_PERICENTER = 60.5247
MEAN_ANOMALY   = 299.6526

EPHEMERIS_TYPE = 0
CLASSIFICATION_TYPE = U
NORAD_CAT_ID   = 16719
ELEMENT_SET_NO = 999
REV_AT_EPOCH   = 17526
BSTAR          = .69107E-3
MEAN_MOTION_DOT = .48739E-3
MEAN_MOTION_DDOT = 0

